DLR-TUBSAT              
1 25757U 99029B   26187.85823036  .00000085  00000+0  32773-4 0  9992
2 25757  98.6704 184.0102 0013055 292.3361  67.6449 14.52431970436104
DMSP 5D-3 F16 (USA 172) 
1 28054U 03048A   26187.84105501  .00000018  00000+0  33272-4 0  9991
2 28054  98.9886 211.7988 0008214  91.6204  29.0883 14.14484849172267
DMSP 5D-3 F17 (USA 191) 
1 29522U 06050A   26187.82741630  .00000044  00000+0  45259-4 0  9992
2 29522  98.7381 193.9957 0010218   6.9457 353.1856 14.14995799 15201
DEIMOS-1                
1 35681U 09041A   26187.85607199  .00000487  00000+0  78960-4 0  9998
2 35681  97.7430 344.2331 0002559 103.4301 256.7194 14.75258356909781
DUBAISAT-1              
1 35682U 09041B   26187.35312922  .00000959  00000+0  14949-3 0  9991
2 35682  98.0075 320.4034 0010620  17.0415 343.1149 14.75157203907925
DMSP 5D-3 F18 (USA 210) 
1 35951U 09057A   26187.80005354  .00000190  00000+0  12156-3 0  9990
2 35951  98.9048 168.5274 0010724 189.3848 170.7127 14.14907573862362
DEIMOS-2                
1 40013U 14033D   26187.81039145  .00002912  00000+0  27977-3 0  9992
2 40013  97.5801  61.6075 0001118  83.2384 276.8963 14.93788355640659
CYGFM05                 
1 41884U 16078A   26187.22137499  .00025774  00000+0  33767-3 0  9991
2 41884  34.9562 134.4688 0007683 314.5929  45.4168 15.57538608531721
CYGFM08                 
1 41888U 16078E   26187.12774630  .00031131  00000+0  35616-3 0  9997
2 41888  34.9424 115.0587 0007984 338.7747  21.2646 15.61061717531938
CYGFM07                 
1 41890U 16078G   26187.14963022  .00031423  00000+0  35818-3 0  9995
2 41890  34.9442 103.2376 0006220 350.8300   9.2312 15.61171459531962
