{
 "generated_at": "2026-07-07T08:23:21Z",
 "sources": [
  {
   "name": "CelesTrak",
   "url": "https://celestrak.org/NORAD/elements/",
   "license": "frei verfügbar; Attribution. Ursprünglich USSPACECOM/Space-Track."
  },
  {
   "name": "GCAT (J. McDowell, planet4589.org)",
   "url": "https://planet4589.org/space/gcat/",
   "license": "CC-BY 4.0"
  }
 ],
 "satellites": [
  {
   "norad": 41884,
   "name": "CYGFM05",
   "intl": "2016-078A",
   "group": "weather",
   "gcat": {
    "class": "C",
    "category": "EOSCI",
    "owner": "LARCN/SWRIB",
    "state": "US"
   },
   "omm": {
    "OBJECT_NAME": "CYGFM05",
    "OBJECT_ID": "2016-078A",
    "EPOCH": "2026-07-06T05:18:46.799136",
    "MEAN_MOTION": 15.57538608,
    "ECCENTRICITY": 0.00076837,
    "INCLINATION": 34.9562,
    "RA_OF_ASC_NODE": 134.4688,
    "ARG_OF_PERICENTER": 314.5929,
    "MEAN_ANOMALY": 45.4168,
    "EPHEMERIS_TYPE": 0,
    "CLASSIFICATION_TYPE": "U",
    "NORAD_CAT_ID": 41884,
    "ELEMENT_SET_NO": 999,
    "REV_AT_EPOCH": 53172,
    "BSTAR": 0.00033767477,
    "MEAN_MOTION_DOT": 0.00025774,
    "MEAN_MOTION_DDOT": 0
   }
  },
  {
   "norad": 41890,
   "name": "CYGFM07",
   "intl": "2016-078G",
   "group": "weather",
   "gcat": {
    "class": "C",
    "category": "EOSCI",
    "owner": "LARCN/SWRIB",
    "state": "US"
   },
   "omm": {
    "OBJECT_NAME": "CYGFM07",
    "OBJECT_ID": "2016-078G",
    "EPOCH": "2026-07-06T03:35:28.051008",
    "MEAN_MOTION": 15.61171459,
    "ECCENTRICITY": 0.000622,
    "INCLINATION": 34.9442,
    "RA_OF_ASC_NODE": 103.2376,
    "ARG_OF_PERICENTER": 350.83,
    "MEAN_ANOMALY": 9.2312,
    "EPHEMERIS_TYPE": 0,
    "CLASSIFICATION_TYPE": "U",
    "NORAD_CAT_ID": 41890,
    "ELEMENT_SET_NO": 999,
    "REV_AT_EPOCH": 53196,
    "BSTAR": 0.00035818,
    "MEAN_MOTION_DOT": 0.00031423,
    "MEAN_MOTION_DDOT": 0
   }
  },
  {
   "norad": 41888,
   "name": "CYGFM08",
   "intl": "2016-078E",
   "group": "weather",
   "gcat": {
    "class": "C",
    "category": "EOSCI",
    "owner": "LARCN/SWRIB",
    "state": "US"
   },
   "omm": {
    "OBJECT_NAME": "CYGFM08",
    "OBJECT_ID": "2016-078E",
    "EPOCH": "2026-07-06T03:03:57.280320",
    "MEAN_MOTION": 15.61061717,
    "ECCENTRICITY": 0.0007984,
    "INCLINATION": 34.9424,
    "RA_OF_ASC_NODE": 115.0587,
    "ARG_OF_PERICENTER": 338.7747,
    "MEAN_ANOMALY": 21.2646,
    "EPHEMERIS_TYPE": 0,
    "CLASSIFICATION_TYPE": "U",
    "NORAD_CAT_ID": 41888,
    "ELEMENT_SET_NO": 999,
    "REV_AT_EPOCH": 53193,
    "BSTAR": 0.00035616,
    "MEAN_MOTION_DOT": 0.00031131,
    "MEAN_MOTION_DDOT": 0
   }
  },
  {
   "norad": 35681,
   "name": "DEIMOS-1",
   "intl": "2009-041A",
   "group": "resource",
   "gcat": {
    "class": "B",
    "category": "IMG",
    "owner": "DEIMOS",
    "state": "E"
   },
   "omm": {
    "OBJECT_NAME": "DEIMOS-1",
    "OBJECT_ID": "2009-041A",
    "EPOCH": "2026-07-06T20:32:44.619936",
    "MEAN_MOTION": 14.75258356,
    "ECCENTRICITY": 0.0002559,
    "INCLINATION": 97.743,
    "RA_OF_ASC_NODE": 344.2331,
    "ARG_OF_PERICENTER": 103.4301,
    "MEAN_ANOMALY": 256.7194,
    "EPHEMERIS_TYPE": 0,
    "CLASSIFICATION_TYPE": "U",
    "NORAD_CAT_ID": 35681,
    "ELEMENT_SET_NO": 999,
    "REV_AT_EPOCH": 90978,
    "BSTAR": 0.00007896,
    "MEAN_MOTION_DOT": 0.00000487,
    "MEAN_MOTION_DDOT": 0
   }
  },
  {
   "norad": 40013,
   "name": "DEIMOS-2",
   "intl": "2014-033D",
   "group": "resource",
   "gcat": {
    "class": "B",
    "category": "IMG",
    "owner": "ELDEC",
    "state": "E"
   },
   "omm": {
    "OBJECT_NAME": "DEIMOS-2",
    "OBJECT_ID": "2014-033D",
    "EPOCH": "2026-07-06T19:26:57.821280",
    "MEAN_MOTION": 14.93788355,
    "ECCENTRICITY": 0.0001118,
    "INCLINATION": 97.5801,
    "RA_OF_ASC_NODE": 61.6075,
    "ARG_OF_PERICENTER": 83.2384,
    "MEAN_ANOMALY": 276.8963,
    "EPHEMERIS_TYPE": 0,
    "CLASSIFICATION_TYPE": "U",
    "NORAD_CAT_ID": 40013,
    "ELEMENT_SET_NO": 999,
    "REV_AT_EPOCH": 64065,
    "BSTAR": 0.00027977,
    "MEAN_MOTION_DOT": 0.00002912,
    "MEAN_MOTION_DDOT": 0
   }
  },
  {
   "norad": 25757,
   "name": "DLR-TUBSAT",
   "intl": "1999-029B",
   "group": "resource",
   "gcat": {
    "class": null,
    "category": null,
    "owner": null,
    "state": null
   },
   "omm": {
    "OBJECT_NAME": "DLR-TUBSAT",
    "OBJECT_ID": "1999-029B",
    "EPOCH": "2026-07-06T20:35:51.103104",
    "MEAN_MOTION": 14.5243197,
    "ECCENTRICITY": 0.0013055,
    "INCLINATION": 98.6704,
    "RA_OF_ASC_NODE": 184.0102,
    "ARG_OF_PERICENTER": 292.3361,
    "MEAN_ANOMALY": 67.6449,
    "EPHEMERIS_TYPE": 0,
    "CLASSIFICATION_TYPE": "U",
    "NORAD_CAT_ID": 25757,
    "ELEMENT_SET_NO": 999,
    "REV_AT_EPOCH": 43610,
    "BSTAR": 0.000032773,
    "MEAN_MOTION_DOT": 8.5e-7,
    "MEAN_MOTION_DDOT": 0
   }
  },
  {
   "norad": 28054,
   "name": "DMSP 5D-3 F16 (USA 172)",
   "intl": "2003-048A",
   "group": "weather",
   "gcat": {
    "class": null,
    "category": null,
    "owner": null,
    "state": null
   },
   "omm": {
    "OBJECT_NAME": "DMSP 5D-3 F16 (USA 172)",
    "OBJECT_ID": "2003-048A",
    "EPOCH": "2026-07-06T20:11:07.152864",
    "MEAN_MOTION": 14.14484849,
    "ECCENTRICITY": 0.0008214,
    "INCLINATION": 98.9886,
    "RA_OF_ASC_NODE": 211.7988,
    "ARG_OF_PERICENTER": 91.6204,
    "MEAN_ANOMALY": 29.0883,
    "EPHEMERIS_TYPE": 0,
    "CLASSIFICATION_TYPE": "U",
    "NORAD_CAT_ID": 28054,
    "ELEMENT_SET_NO": 999,
    "REV_AT_EPOCH": 17226,
    "BSTAR": 0.000033272,
    "MEAN_MOTION_DOT": 1.8e-7,
    "MEAN_MOTION_DDOT": 0
   }
  },
  {
   "norad": 29522,
   "name": "DMSP 5D-3 F17 (USA 191)",
   "intl": "2006-050A",
   "group": "weather",
   "gcat": {
    "class": "D",
    "category": "MET",
    "owner": "AFSMC",
    "state": "US"
   },
   "omm": {
    "OBJECT_NAME": "DMSP 5D-3 F17 (USA 191)",
    "OBJECT_ID": "2006-050A",
    "EPOCH": "2026-07-06T19:51:28.768320",
    "MEAN_MOTION": 14.14995799,
    "ECCENTRICITY": 0.0010218,
    "INCLINATION": 98.7381,
    "RA_OF_ASC_NODE": 193.9957,
    "ARG_OF_PERICENTER": 6.9457,
    "MEAN_ANOMALY": 353.1856,
    "EPHEMERIS_TYPE": 0,
    "CLASSIFICATION_TYPE": "U",
    "NORAD_CAT_ID": 29522,
    "ELEMENT_SET_NO": 999,
    "REV_AT_EPOCH": 1520,
    "BSTAR": 0.000045259,
    "MEAN_MOTION_DOT": 4.4e-7,
    "MEAN_MOTION_DDOT": 0
   }
  },
  {
   "norad": 35951,
   "name": "DMSP 5D-3 F18 (USA 210)",
   "intl": "2009-057A",
   "group": "weather",
   "gcat": {
    "class": "D",
    "category": "MET",
    "owner": "AFSMC",
    "state": "US"
   },
   "omm": {
    "OBJECT_NAME": "DMSP 5D-3 F18 (USA 210)",
    "OBJECT_ID": "2009-057A",
    "EPOCH": "2026-07-06T19:12:04.625856",
    "MEAN_MOTION": 14.14907573,
    "ECCENTRICITY": 0.0010724,
    "INCLINATION": 98.9048,
    "RA_OF_ASC_NODE": 168.5274,
    "ARG_OF_PERICENTER": 189.3848,
    "MEAN_ANOMALY": 170.7127,
    "EPHEMERIS_TYPE": 0,
    "CLASSIFICATION_TYPE": "U",
    "NORAD_CAT_ID": 35951,
    "ELEMENT_SET_NO": 999,
    "REV_AT_EPOCH": 86236,
    "BSTAR": 0.00012156,
    "MEAN_MOTION_DOT": 0.0000019,
    "MEAN_MOTION_DDOT": 0
   }
  },
  {
   "norad": 35682,
   "name": "DUBAISAT-1",
   "intl": "2009-041B",
   "group": "resource",
   "gcat": {
    "class": null,
    "category": null,
    "owner": null,
    "state": null
   },
   "omm": {
    "OBJECT_NAME": "DUBAISAT-1",
    "OBJECT_ID": "2009-041B",
    "EPOCH": "2026-07-06T08:28:30.364608",
    "MEAN_MOTION": 14.75157203,
    "ECCENTRICITY": 0.00106207,
    "INCLINATION": 98.0075,
    "RA_OF_ASC_NODE": 320.4034,
    "ARG_OF_PERICENTER": 17.0415,
    "MEAN_ANOMALY": 343.1149,
    "EPHEMERIS_TYPE": 0,
    "CLASSIFICATION_TYPE": "U",
    "NORAD_CAT_ID": 35682,
    "ELEMENT_SET_NO": 999,
    "REV_AT_EPOCH": 90792,
    "BSTAR": 0.00014948587,
    "MEAN_MOTION_DOT": 0.00000959,
    "MEAN_MOTION_DDOT": 0
   }
  }
 ]
}
